{"type": "FeatureCollection", "features": [ {"type": "Feature", "properties": {"norad_id": 44506, "name": "GPS BIII-2  (PRN 18)", "group": "gnss", "lat": -14.170047044441908, "lon": -31.325301275258013, "alt_km": 20308.061269823116, "timestamp": "2025-12-11T15:53:39.785739+00:00", "meta": {"OBJECT_NAME": "GPS BIII-2  (PRN 18)", "OBJECT_ID": "2019-056A", "EPOCH": "2025-12-10T22:36:31.473216", "MEAN_MOTION": 2.00566186, "ECCENTRICITY": 0.00577553, "INCLINATION": 55.722, "RA_OF_ASC_NODE": 338.6233, "ARG_OF_PERICENTER": 198.4895, "MEAN_ANOMALY": 343.848, "EPHEMERIS_TYPE": 0, "CLASSIFICATION_TYPE": "U", "NORAD_CAT_ID": 44506, "ELEMENT_SET_NO": 999, "REV_AT_EPOCH": 4629, "BSTAR": 0, "MEAN_MOTION_DOT": -8.7e-07, "MEAN_MOTION_DDOT": 0}, "tle": {"line1": "1 44506U 19056A   25344.94203094 -.00000087  00000+0  00000+0 0  9993", "line2": "2 44506  55.7220 338.6233 0057755 198.4895 343.8480  2.00566186 46298"}}, "geometry": {"type": "Point", "coordinates": [-31.325301275258013, -14.170047044441908]}}, {"type": "Feature", "properties": {"norad_id": 44542, "name": "BEIDOU-3 M24 (C46)", "group": "gnss", "lat": -43.23398061166469, "lon": 51.40520214536311, "alt_km": 21555.8117574078, "timestamp": "2025-12-11T15:53:39.785750+00:00", "meta": {"OBJECT_NAME": "BEIDOU-3 M24 (C46)", "OBJECT_ID": "2019-061A", "EPOCH": "2025-12-10T05:37:21.080064", "MEAN_MOTION": 1.86229306, "ECCENTRICITY": 0.0009591, "INCLINATION": 54.4003, "RA_OF_ASC_NODE": 189.1006, "ARG_OF_PERICENTER": 24.8037, "MEAN_ANOMALY": 335.3013, "EPHEMERIS_TYPE": 0, "CLASSIFICATION_TYPE": "U", "NORAD_CAT_ID": 44542, "ELEMENT_SET_NO": 999, "REV_AT_EPOCH": 4227, "BSTAR": 0, "MEAN_MOTION_DOT": 5.4e-07, "MEAN_MOTION_DDOT": 0}, "tle": {"line1": "1 44542U 19061A   25344.23427176  .00000054  00000+0  00000+0 0  9993", "line2": "2 44542  54.4003 189.1006 0009591  24.8037 335.3013  1.86229306 42270"}}, "geometry": {"type": "Point", "coordinates": [51.40520214536311, -43.23398061166469]}}, {"type": "Feature", "properties": {"norad_id": 44543, "name": "BEIDOU-3 M23 (C45)", "group": "gnss", "lat": 23.74051235941829, "lon": -9.342081760530348, "alt_km": 21535.7590550309, "timestamp": "2025-12-11T15:53:39.785761+00:00", "meta": {"OBJECT_NAME": "BEIDOU-3 M23 (C45)", "OBJECT_ID": "2019-061B", "EPOCH": "2025-12-08T18:00:07.463232", "MEAN_MOTION": 1.8622754, "ECCENTRICITY": 0.00060873, "INCLINATION": 54.3989, "RA_OF_ASC_NODE": 189.119, "ARG_OF_PERICENTER": 23.0878, "MEAN_ANOMALY": 334.736, "EPHEMERIS_TYPE": 0, "CLASSIFICATION_TYPE": "U", "NORAD_CAT_ID": 44543, "ELEMENT_SET_NO": 999, "REV_AT_EPOCH": 4224, "BSTAR": 0, "MEAN_MOTION_DOT": 5e-07, "MEAN_MOTION_DDOT": 0}, "tle": {"line1": "1 44543U 19061B   25342.75008638  .00000050  00000+0  00000+0 0  9993", "line2": "2 44543  54.3989 189.1190 0006087  23.0878 334.7360  1.86227540 42241"}}, "geometry": {"type": "Point", "coordinates": [-9.342081760530348, 23.74051235941829]}}, {"type": "Feature", "properties": {"norad_id": 44624, "name": "EUTELSAT 5 WEST B (EGNOS/PRN 121)", "group": "gnss", "lat": -0.040837647896164474, "lon": -45.93876521142625, "alt_km": 35777.42960563281, "timestamp": "2025-12-11T15:53:39.785773+00:00", "meta": {"OBJECT_NAME": "EUTELSAT 5 WEST B (EGNOS/PRN 121)", "OBJECT_ID": "2019-067A", "EPOCH": "2025-12-11T04:55:34.110624", "MEAN_MOTION": 1.00271563, "ECCENTRICITY": 0.00034195, "INCLINATION": 0.063, "RA_OF_ASC_NODE": 345.9064, "ARG_OF_PERICENTER": 275.158, "MEAN_ANOMALY": 247.9961, "EPHEMERIS_TYPE": 0, "CLASSIFICATION_TYPE": "U", "NORAD_CAT_ID": 44624, "ELEMENT_SET_NO": 999, "REV_AT_EPOCH": 2255, "BSTAR": 0, "MEAN_MOTION_DOT": -3.6e-07, "MEAN_MOTION_DDOT": 0}, "tle": {"line1": "1 44624U 19067A   25345.20525591 -.00000036  00000+0  00000+0 0  9999", "line2": "2 44624   0.0630 345.9064 0003419 275.1580 247.9961  1.00271563 22554"}}, "geometry": {"type": "Point", "coordinates": [-45.93876521142625, -0.040837647896164474]}}, {"type": "Feature", "properties": {"norad_id": 44709, "name": "BEIDOU-3 IGSO-3 (C40)", "group": "gnss", "lat": 24.846262733741813, "lon": 84.09616483715669, "alt_km": 35651.877921381965, "timestamp": "2025-12-11T15:53:39.785786+00:00", "meta": {"OBJECT_NAME": "BEIDOU-3 IGSO-3 (C40)", "OBJECT_ID": "2019-073A", "EPOCH": "2025-11-20T07:11:22.740000", "MEAN_MOTION": 1.00250097, "ECCENTRICITY": 0.0044538, "INCLINATION": 55.163, "RA_OF_ASC_NODE": 283.159, "ARG_OF_PERICENTER": 191.5856, "MEAN_ANOMALY": 168.2409, "EPHEMERIS_TYPE": 0, "CLASSIFICATION_TYPE": "U", "NORAD_CAT_ID": 44709, "ELEMENT_SET_NO": 999, "REV_AT_EPOCH": 2236, "BSTAR": 0, "MEAN_MOTION_DOT": -2.06e-06, "MEAN_MOTION_DDOT": 0}, "tle": {"line1": "1 44709U 19073A   25324.29956875 -.00000206  00000+0  00000+0 0  9998", "line2": "2 44709  55.1630 283.1590 0044538 191.5856 168.2409  1.00250097 22360"}}, "geometry": {"type": "Point", "coordinates": [84.09616483715669, 24.846262733741813]}}, {"type": "Feature", "properties": {"norad_id": 44793, "name": "BEIDOU-3 M22 (C44)", "group": "gnss", "lat": -12.42414015992315, "lon": -62.766787312232424, "alt_km": 21517.43291680787, "timestamp": "2025-12-11T15:53:39.785801+00:00", "meta": {"OBJECT_NAME": "BEIDOU-3 M22 (C44)", "OBJECT_ID": "2019-078A", "EPOCH": "2025-12-10T01:47:05.181792", "MEAN_MOTION": 1.86231719, "ECCENTRICITY": 0.0005679, "INCLINATION": 54.1107, "RA_OF_ASC_NODE": 306.4794, "ARG_OF_PERICENTER": 23.2059, "MEAN_ANOMALY": 336.8105, "EPHEMERIS_TYPE": 0, "CLASSIFICATION_TYPE": "U", "NORAD_CAT_ID": 44793, "ELEMENT_SET_NO": 999, "REV_AT_EPOCH": 4112, "BSTAR": 0, "MEAN_MOTION_DOT": -8e-07, "MEAN_MOTION_DDOT": 0}, "tle": {"line1": "1 44793U 19078A   25344.07436553 -.00000080  00000+0  00000+0 0  9990", "line2": "2 44793  54.1107 306.4794 0005679  23.2059 336.8105  1.86231719 41120"}}, "geometry": {"type": "Point", "coordinates": [-62.766787312232424, -12.42414015992315]}}, {"type": "Feature", "properties": {"norad_id": 44794, "name": "BEIDOU-3 M21 (C43)", "group": "gnss", "lat": -50.50430916305957, "lon": -172.1344131549212, "alt_km": 21538.950440083416, "timestamp": "2025-12-11T15:53:39.785856+00:00", "meta": {"OBJECT_NAME": "BEIDOU-3 M21 (C43)", "OBJECT_ID": "2019-078B", "EPOCH": "2025-12-09T03:18:47.736000", "MEAN_MOTION": 1.86227438, "ECCENTRICITY": 0.00038519, "INCLINATION": 54.0853, "RA_OF_ASC_NODE": 306.4778, "ARG_OF_PERICENTER": 10.0441, "MEAN_ANOMALY": 349.953, "EPHEMERIS_TYPE": 0, "CLASSIFICATION_TYPE": "U", "NORAD_CAT_ID": 44794, "ELEMENT_SET_NO": 999, "REV_AT_EPOCH": 4111, "BSTAR": 0, "MEAN_MOTION_DOT": -7.6e-07, "MEAN_MOTION_DDOT": 0}, "tle": {"line1": "1 44794U 19078B   25343.13805250 -.00000076  00000+0  00000+0 0  9996", "line2": "2 44794  54.0853 306.4778 0003851  10.0441 349.9530  1.86227438 41118"}}, "geometry": {"type": "Point", "coordinates": [-172.1344131549212, -50.50430916305957]}}, {"type": "Feature", "properties": {"norad_id": 44850, "name": "COSMOS 2544 (759)", "group": "gnss", "lat": -63.20579453525507, "lon": -35.39661893558441, "alt_km": 19102.115242439722, "timestamp": "2025-12-11T15:53:39.785871+00:00", "meta": {"OBJECT_NAME": "COSMOS 2544 (759)", "OBJECT_ID": "2019-088A", "EPOCH": "2025-12-09T10:44:40.855776", "MEAN_MOTION": 2.13101749, "ECCENTRICITY": 0.00136674, "INCLINATION": 65.4583, "RA_OF_ASC_NODE": 80.0686, "ARG_OF_PERICENTER": 249.2063, "MEAN_ANOMALY": 110.6639, "EPHEMERIS_TYPE": 0, "CLASSIFICATION_TYPE": "U", "NORAD_CAT_ID": 44850, "ELEMENT_SET_NO": 999, "REV_AT_EPOCH": 4667, "BSTAR": 0, "MEAN_MOTION_DOT": -1.3e-07, "MEAN_MOTION_DDOT": 0}, "tle": {"line1": "1 44850U 19088A   25343.44769509 -.00000013  00000+0  00000+0 0  9991", "line2": "2 44850  65.4583  80.0686 0013667 249.2063 110.6639  2.13101749 46678"}}, "geometry": {"type": "Point", "coordinates": [-35.39661893558441, -63.20579453525507]}}, {"type": "Feature", "properties": {"norad_id": 44864, "name": "BEIDOU-3 M19 (C41)", "group": "gnss", "lat": 56.36537756750783, "lon": 155.64688229240957, "alt_km": 21569.187393222255, "timestamp": "2025-12-11T15:53:39.785883+00:00", "meta": {"OBJECT_NAME": "BEIDOU-3 M19 (C41)", "OBJECT_ID": "2019-090A", "EPOCH": "2025-12-10T23:47:39.658272", "MEAN_MOTION": 1.86231263, "ECCENTRICITY": 0.0017877, "INCLINATION": 56.392, "RA_OF_ASC_NODE": 69.0187, "ARG_OF_PERICENTER": 285.2046, "MEAN_ANOMALY": 73.1126, "EPHEMERIS_TYPE": 0, "CLASSIFICATION_TYPE": "U", "NORAD_CAT_ID": 44864, "ELEMENT_SET_NO": 999, "REV_AT_EPOCH": 4072, "BSTAR": 0, "MEAN_MOTION_DOT": -6e-07, "MEAN_MOTION_DDOT": 0}, "tle": {"line1": "1 44864U 19090A   25344.99143123 -.00000060  00000+0  00000+0 0  9990", "line2": "2 44864  56.3920  69.0187 0017877 285.2046  73.1126  1.86231263 40726"}}, "geometry": {"type": "Point", "coordinates": [155.64688229240957, 56.36537756750783]}}, {"type": "Feature", "properties": {"norad_id": 44865, "name": "BEIDOU-3 M20 (C42)", "group": "gnss", "lat": 2.0188861788336596, "lon": -112.3029332389683, "alt_km": 21549.07836965622, "timestamp": "2025-12-11T15:53:39.785896+00:00", "meta": {"OBJECT_NAME": "BEIDOU-3 M20 (C42)", "OBJECT_ID": "2019-090B", "EPOCH": "2025-12-10T20:36:05.507712", "MEAN_MOTION": 1.86231317, "ECCENTRICITY": 0.0014897, "INCLINATION": 56.3937, "RA_OF_ASC_NODE": 69.0576, "ARG_OF_PERICENTER": 298.003, "MEAN_ANOMALY": 60.7372, "EPHEMERIS_TYPE": 0, "CLASSIFICATION_TYPE": "U", "NORAD_CAT_ID": 44865, "ELEMENT_SET_NO": 999, "REV_AT_EPOCH": 4070, "BSTAR": 0, "MEAN_MOTION_DOT": -5.8e-07, "MEAN_MOTION_DDOT": 0}, "tle": {"line1": "1 44865U 19090B   25344.85839708 -.00000058  00000+0  00000+0 0  9994", "line2": "2 44865  56.3937  69.0576 0014897 298.0030  60.7372  1.86231317 40704"}}, "geometry": {"type": "Point", "coordinates": [-112.3029332389683, 2.0188861788336596]}}]}